[Satellite]
VERSION=1.1
NAME=HISAKI (SPRINT-A)
NICKNAME=HISAKI (SPRINT-A)
TLE1=1 39253U 13049A   15054.26507654  .00000138  00000-0  10302-3 0  9990
TLE2=2 39253  29.7204 337.2800 0136700  13.7400 346.6843 13.55106396 71554
